{
  "type": "FeatureCollection",
  "features": [
    {
      "type": "Feature",
      "properties": {
        "norad_id": 43706,
        "name": "BEIDOU-3 M17 (C36)",
        "group": "beidou",
        "lat": 51.46677382610901,
        "lon": -56.66876100821032,
        "alt_km": 21538.02199269791,
        "timestamp": "2025-12-16T21:38:57.439823+00:00",
        "meta_object_name": "BEIDOU-3 M17 (C36)",
        "meta_object_id": "2018-093A",
        "meta_epoch": "2025-12-15T07:56:44.520576",
        "meta_mean_motion": 1.86228523,
        "meta_eccentricity": 0.00061371,
        "meta_inclination": 54.1729,
        "meta_ra_of_asc_node": 188.5337,
        "meta_arg_of_pericenter": 307.6759,
        "meta_mean_anomaly": 184.25,
        "meta_ephemeris_type": 0,
        "meta_classification_type": "U",
        "meta_norad_cat_id": 43706,
        "meta_element_set_no": 999,
        "meta_rev_at_epoch": 4811,
        "meta_bstar": 0,
        "meta_mean_motion_dot": 1.13e-06,
        "meta_mean_motion_ddot": 0,
        "tle_line1": "1 43706U 18093A   25349.33107084  .00000113  00000+0  00000+0 0  9993",
        "tle_line2": "2 43706  54.1729 188.5337 0006137 307.6759 184.2500  1.86228523 48110"
      },
      "geometry": {
        "type": "Point",
        "coordinates": [
          -56.66876100821032,
          51.46677382610901
        ]
      }
    },
    {
      "type": "Feature",
      "properties": {
        "norad_id": 43707,
        "name": "BEIDOU-3 M18 (C37)",
        "group": "beidou",
        "lat": -14.501883521491997,
        "lon": 19.251992472690006,
        "alt_km": 21546.55419587748,
        "timestamp": "2025-12-16T21:38:57.439834+00:00",
        "meta_object_name": "BEIDOU-3 M18 (C37)",
        "meta_object_id": "2018-093B",
        "meta_epoch": "2025-12-14T23:54:02.185632",
        "meta_mean_motion": 1.86226745,
        "meta_eccentricity": 0.00063121,
        "meta_inclination": 54.1734,
        "meta_ra_of_asc_node": 188.5369,
        "meta_arg_of_pericenter": 353.2198,
        "meta_mean_anomaly": 6.8394,
        "meta_ephemeris_type": 0,
        "meta_classification_type": "U",
        "meta_norad_cat_id": 43707,
        "meta_element_set_no": 999,
        "meta_rev_at_epoch": 4810,
        "meta_bstar": 0,
        "meta_mean_motion_dot": 1.11e-06,
        "meta_mean_motion_ddot": 0,
        "tle_line1": "1 43707U 18093B   25348.99585863  .00000111  00000+0  00000+0 0  9998",
        "tle_line2": "2 43707  54.1734 188.5369 0006312 353.2198   6.8394  1.86226745 48104"
      },
      "geometry": {
        "type": "Point",
        "coordinates": [
          19.251992472690006,
          -14.501883521491997
        ]
      }
    },
    {
      "type": "Feature",
      "properties": {
        "norad_id": 44204,
        "name": "BEIDOU-3 IGSO-1 (C38)",
        "group": "beidou",
        "lat": 45.454879552868235,
        "lon": -179.01392395449435,
        "alt_km": 35805.29353670341,
        "timestamp": "2025-12-16T21:38:57.439846+00:00",
        "meta_object_name": "BEIDOU-3 IGSO-1 (C38)",
        "meta_object_id": "2019-023A",
        "meta_epoch": "2025-11-19T14:15:02.708640",
        "meta_mean_motion": 1.00252177,
        "meta_eccentricity": 0.0026966,
        "meta_inclination": 58.4003,
        "meta_ra_of_asc_node": 39.8168,
        "meta_arg_of_pericenter": 221.2202,
        "meta_mean_anomaly": 126.9723,
        "meta_ephemeris_type": 0,
        "meta_classification_type": "U",
        "meta_norad_cat_id": 44204,
        "meta_element_set_no": 999,
        "meta_rev_at_epoch": 510,
        "meta_bstar": 0,
        "meta_mean_motion_dot": -2.26e-06,
        "meta_mean_motion_ddot": 0,
        "tle_line1": "1 44204U 19023A   25323.59378135 -.00000226  00000+0  00000+0 0  9994",
        "tle_line2": "2 44204  58.4003  39.8168 0026966 221.2202 126.9723  1.00252177  5102"
      },
      "geometry": {
        "type": "Point",
        "coordinates": [
          -179.01392395449435,
          45.454879552868235
        ]
      }
    },
    {
      "type": "Feature",
      "properties": {
        "norad_id": 44231,
        "name": "BEIDOU-2 G8 (C01)",
        "group": "beidou",
        "lat": 1.4322807997142657,
        "lon": -165.1045752568872,
        "alt_km": 35814.45611850988,
        "timestamp": "2025-12-16T21:38:57.439861+00:00",
        "meta_object_name": "BEIDOU-2 G8 (C01)",
        "meta_object_id": "2019-027A",
        "meta_epoch": "2025-12-16T07:11:43.264320",
        "meta_mean_motion": 1.00267258,
        "meta_eccentricity": 0.00087548,
        "meta_inclination": 1.6709,
        "meta_ra_of_asc_node": 74.7203,
        "meta_arg_of_pericenter": 258.1532,
        "meta_mean_anomaly": 4.6946,
        "meta_ephemeris_type": 0,
        "meta_classification_type": "U",
        "meta_norad_cat_id": 44231,
        "meta_element_set_no": 999,
        "meta_rev_at_epoch": 2424,
        "meta_bstar": 0,
        "meta_mean_motion_dot": -2.26e-06,
        "meta_mean_motion_ddot": 0,
        "tle_line1": "1 44231U 19027A   25350.29980630 -.00000226  00000+0  00000+0 0  9994",
        "tle_line2": "2 44231   1.6709  74.7203 0008754 258.1532   4.6946  1.00267258 24244"
      },
      "geometry": {
        "type": "Point",
        "coordinates": [
          -165.1045752568872,
          1.4322807997142657
        ]
      }
    },
    {
      "type": "Feature",
      "properties": {
        "norad_id": 44337,
        "name": "BEIDOU-3 IGSO-2 (C39)",
        "group": "beidou",
        "lat": 7.892073924390209,
        "lon": 165.98625400832907,
        "alt_km": 35939.53443933573,
        "timestamp": "2025-12-16T21:38:57.439873+00:00",
        "meta_object_name": "BEIDOU-3 IGSO-2 (C39)",
        "meta_object_id": "2019-035A",
        "meta_epoch": "2025-12-15T20:48:46.059264",
        "meta_mean_motion": 1.0027048,
        "meta_eccentricity": 0.00373444,
        "meta_inclination": 55.2266,
        "meta_ra_of_asc_node": 160.4736,
        "meta_arg_of_pericenter": 202.467,
        "meta_mean_anomaly": 153.4937,
        "meta_ephemeris_type": 0,
        "meta_classification_type": "U",
        "meta_norad_cat_id": 44337,
        "meta_element_set_no": 999,
        "meta_rev_at_epoch": 2382,
        "meta_bstar": 0,
        "meta_mean_motion_dot": -3.5e-07,
        "meta_mean_motion_ddot": 0,
        "tle_line1": "1 44337U 19035A   25349.86719976 -.00000035  00000+0  00000+0 0  9992",
        "tle_line2": "2 44337  55.2266 160.4736 0037344 202.4670 153.4937  1.00270480 23827"
      },
      "geometry": {
        "type": "Point",
        "coordinates": [
          165.98625400832907,
          7.892073924390209
        ]
      }
    },
    {
      "type": "Feature",
      "properties": {
        "norad_id": 44542,
        "name": "BEIDOU-3 M24 (C46)",
        "group": "beidou",
        "lat": 23.540260611844097,
        "lon": -9.310297647489772,
        "alt_km": 21540.98102737088,
        "timestamp": "2025-12-16T21:38:57.439884+00:00",
        "meta_object_name": "BEIDOU-3 M24 (C46)",
        "meta_object_id": "2019-061A",
        "meta_epoch": "2025-12-15T14:29:31.339680",
        "meta_mean_motion": 1.8622936,
        "meta_eccentricity": 0.00095934,
        "meta_inclination": 54.4001,
        "meta_ra_of_asc_node": 188.9192,
        "meta_arg_of_pericenter": 24.73,
        "meta_mean_anomaly": 335.3854,
        "meta_ephemeris_type": 0,
        "meta_classification_type": "U",
        "meta_norad_cat_id": 44542,
        "meta_element_set_no": 999,
        "meta_rev_at_epoch": 4237,
        "meta_bstar": 0,
        "meta_mean_motion_dot": 1.14e-06,
        "meta_mean_motion_ddot": 0,
        "tle_line1": "1 44542U 19061A   25349.60383495  .00000114  00000+0  00000+0 0  9991",
        "tle_line2": "2 44542  54.4001 188.9192 0009593  24.7300 335.3854  1.86229360 42379"
      },
      "geometry": {
        "type": "Point",
        "coordinates": [
          -9.310297647489772,
          23.540260611844097
        ]
      }
    },
    {
      "type": "Feature",
      "properties": {
        "norad_id": 44543,
        "name": "BEIDOU-3 M23 (C45)",
        "group": "beidou",
        "lat": 46.526371031589115,
        "lon": -122.04318388040554,
        "alt_km": 21509.466380688886,
        "timestamp": "2025-12-16T21:38:57.439895+00:00",
        "meta_object_name": "BEIDOU-3 M23 (C45)",
        "meta_object_id": "2019-061B",
        "meta_epoch": "2025-12-16T06:33:39.409920",
        "meta_mean_motion": 1.86227705,
        "meta_eccentricity": 0.00061054,
        "meta_inclination": 54.399,
        "meta_ra_of_asc_node": 188.865,
        "meta_arg_of_pericenter": 24.5789,
        "meta_mean_anomaly": 337.1686,
        "meta_ephemeris_type": 0,
        "meta_classification_type": "U",
        "meta_norad_cat_id": 44543,
        "meta_element_set_no": 999,
        "meta_rev_at_epoch": 4239,
        "meta_bstar": 0,
        "meta_mean_motion_dot": 1.15e-06,
        "meta_mean_motion_ddot": 0,
        "tle_line1": "1 44543U 19061B   25350.27337280  .00000115  00000+0  00000+0 0  9999",
        "tle_line2": "2 44543  54.3990 188.8650 0006105  24.5789 337.1686  1.86227705 42395"
      },
      "geometry": {
        "type": "Point",
        "coordinates": [
          -122.04318388040554,
          46.526371031589115
        ]
      }
    }
  ]
}